COSMOS 2151             
1 21422U 91042A   25334.61292387  .00001480  00000+0  11791-3 0  9996
2 21422  82.4967 179.1886 0013533  39.2771 320.9432 14.99617397848349
SL-14 R/B               
1 21423U 91042B   25334.42393797  .00000513  00000+0  62082-4 0  9999
2 21423  82.4917 313.2733 0016366 202.4583 157.5917 14.81720348838375
ERS-1                   
1 21574U 91050A   25334.50221504  .00000357  00000+0  12888-3 0  9994
2 21574  98.7913 345.2508 0032758 135.3116 225.0720 14.39349496801469
ARIANE 40 R/B           
1 21610U 91050F   25334.16480828  .00000389  00000+0  12911-3 0  9995
2 21610  98.2184  25.0482 0003548  35.5050 324.6376 14.42796351804648
INTERCOSMOS 25          
1 21819U 91086A   25334.58145732  .00002230  00000+0  44125-3 0  9992
2 21819  82.6068   9.9285 1487241 330.6230  21.8601 12.11658306484681
SL-8 R/B                
1 21876U 92008B   25334.54590417  .00000162  00000+0  15049-3 0  9995
2 21876  82.9264 341.5175 0035809  53.1232  59.6033 13.75954902695780
SL-8 R/B                
1 21938U 92020B   25334.49784848  .00000061  00000+0  48084-4 0  9999
2 21938  82.9314 227.4070 0028142 212.8395 320.8378 13.75524407687494
USA 81                  
1 21949U 92023A   25334.59897391  .00000197  00000+0  65723-4 0  9992
2 21949  85.0089 188.5774 0001963  63.7579 296.3815 14.32319945 80602
COSMOS 2219             
1 22219U 92076A   25334.41597167 -.00000264  00000+0 -11393-3 0  9990
2 22219  71.0597 225.5934 0018752 343.9744  16.0783 14.14064854704344
SL-16 R/B               
1 22220U 92076B   25334.58218341  .00000175  00000+0  11121-3 0  9992
2 22220  71.0017  37.1416 0015073 250.1101 213.3934 14.16840191707794
COSMOS 2221             
1 22236U 92080A   25334.57532545  .00002039  00000+0  18063-3 0  9991
2 22236  82.5056  13.9683 0015166 159.9912 200.1907 14.95687387765979
SL-16 R/B               
1 22285U 92093B   25334.37662751 -.00000229  00000+0 -93145-4 0  9996
2 22285  71.0204 212.7476 0001947 109.6549 250.4784 14.15426125699105
