CCSDS_OMM_VERS = 2.0
CREATION_DATE  = 
ORIGINATOR     = 

OBJECT_NAME    = COSMOS 2151
OBJECT_ID      = 1991-042A
CENTER_NAME    = EARTH
REF_FRAME      = TEME
TIME_SYSTEM    = UTC
MEAN_ELEMENT_THEORY = SGP/SGP4

EPOCH          = 2025-11-30T14:42:36.622368
MEAN_MOTION    = 14.99617397
ECCENTRICITY   = .00135333
INCLINATION    = 82.4967
RA_OF_ASC_NODE = 179.1886
ARG_OF_PERICENTER = 39.2771
MEAN_ANOMALY   = 320.9432

EPHEMERIS_TYPE = 0
CLASSIFICATION_TYPE = U
NORAD_CAT_ID   = 21422
ELEMENT_SET_NO = 999
REV_AT_EPOCH   = 84834
BSTAR          = .11791033E-3
MEAN_MOTION_DOT = .148E-4
MEAN_MOTION_DDOT = 0

CCSDS_OMM_VERS = 2.0
CREATION_DATE  = 
ORIGINATOR     = 

OBJECT_NAME    = SL-14 R/B
OBJECT_ID      = 1991-042B
CENTER_NAME    = EARTH
REF_FRAME      = TEME
TIME_SYSTEM    = UTC
MEAN_ELEMENT_THEORY = SGP/SGP4

EPOCH          = 2025-11-30T10:10:28.240608
MEAN_MOTION    = 14.81720348
ECCENTRICITY   = .00163663
INCLINATION    = 82.4917
RA_OF_ASC_NODE = 313.2733
ARG_OF_PERICENTER = 202.4583
MEAN_ANOMALY   = 157.5917

EPHEMERIS_TYPE = 0
CLASSIFICATION_TYPE = U
NORAD_CAT_ID   = 21423
ELEMENT_SET_NO = 999
REV_AT_EPOCH   = 83837
BSTAR          = .62082316E-4
MEAN_MOTION_DOT = .513E-5
MEAN_MOTION_DDOT = 0

CCSDS_OMM_VERS = 2.0
CREATION_DATE  = 
ORIGINATOR     = 

OBJECT_NAME    = ERS-1
OBJECT_ID      = 1991-050A
CENTER_NAME    = EARTH
REF_FRAME      = TEME
TIME_SYSTEM    = UTC
MEAN_ELEMENT_THEORY = SGP/SGP4

EPOCH          = 2025-11-30T12:03:11.379456
MEAN_MOTION    = 14.39349496
ECCENTRICITY   = .00327585
INCLINATION    = 98.7913
RA_OF_ASC_NODE = 345.2508
ARG_OF_PERICENTER = 135.3116
MEAN_ANOMALY   = 225.0720

EPHEMERIS_TYPE = 0
CLASSIFICATION_TYPE = U
NORAD_CAT_ID   = 21574
ELEMENT_SET_NO = 999
REV_AT_EPOCH   = 80146
BSTAR          = .12887967E-3
MEAN_MOTION_DOT = .357E-5
MEAN_MOTION_DDOT = 0

CCSDS_OMM_VERS = 2.0
CREATION_DATE  = 
ORIGINATOR     = 

OBJECT_NAME    = ARIANE 40 R/B
OBJECT_ID      = 1991-050F
CENTER_NAME    = EARTH
REF_FRAME      = TEME
TIME_SYSTEM    = UTC
MEAN_ELEMENT_THEORY = SGP/SGP4

EPOCH          = 2025-11-30T03:57:19.435392
MEAN_MOTION    = 14.42796351
ECCENTRICITY   = .00035488
INCLINATION    = 98.2184
RA_OF_ASC_NODE = 25.0482
ARG_OF_PERICENTER = 35.5050
MEAN_ANOMALY   = 324.6376

EPHEMERIS_TYPE = 0
CLASSIFICATION_TYPE = U
NORAD_CAT_ID   = 21610
ELEMENT_SET_NO = 999
REV_AT_EPOCH   = 80464
BSTAR          = .12911251E-3
MEAN_MOTION_DOT = .389E-5
MEAN_MOTION_DDOT = 0

CCSDS_OMM_VERS = 2.0
CREATION_DATE  = 
ORIGINATOR     = 

OBJECT_NAME    = INTERCOSMOS 25
OBJECT_ID      = 1991-086A
CENTER_NAME    = EARTH
REF_FRAME      = TEME
TIME_SYSTEM    = UTC
MEAN_ELEMENT_THEORY = SGP/SGP4

EPOCH          = 2025-11-30T13:57:17.912448
MEAN_MOTION    = 12.11658306
ECCENTRICITY   = .14872416
INCLINATION    = 82.6068
RA_OF_ASC_NODE = 9.9285
ARG_OF_PERICENTER = 330.6230
MEAN_ANOMALY   = 21.8601

EPHEMERIS_TYPE = 0
CLASSIFICATION_TYPE = U
NORAD_CAT_ID   = 21819
ELEMENT_SET_NO = 999
REV_AT_EPOCH   = 48468
BSTAR          = .44124815E-3
MEAN_MOTION_DOT = .223E-4
MEAN_MOTION_DDOT = 0

CCSDS_OMM_VERS = 2.0
CREATION_DATE  = 
ORIGINATOR     = 

OBJECT_NAME    = SL-8 R/B
OBJECT_ID      = 1992-008B
CENTER_NAME    = EARTH
REF_FRAME      = TEME
TIME_SYSTEM    = UTC
MEAN_ELEMENT_THEORY = SGP/SGP4

EPOCH          = 2025-11-30T13:06:06.120288
MEAN_MOTION    = 13.75954902
ECCENTRICITY   = .00358094
INCLINATION    = 82.9264
RA_OF_ASC_NODE = 341.5175
ARG_OF_PERICENTER = 53.1232
MEAN_ANOMALY   = 59.6033

EPHEMERIS_TYPE = 0
CLASSIFICATION_TYPE = U
NORAD_CAT_ID   = 21876
ELEMENT_SET_NO = 999
REV_AT_EPOCH   = 69578
BSTAR          = .15049358E-3
MEAN_MOTION_DOT = .162E-5
MEAN_MOTION_DDOT = 0

CCSDS_OMM_VERS = 2.0
CREATION_DATE  = 
ORIGINATOR     = 

OBJECT_NAME    = SL-8 R/B
OBJECT_ID      = 1992-020B
CENTER_NAME    = EARTH
REF_FRAME      = TEME
TIME_SYSTEM    = UTC
MEAN_ELEMENT_THEORY = SGP/SGP4

EPOCH          = 2025-11-30T11:56:54.108672
MEAN_MOTION    = 13.75524407
ECCENTRICITY   = .00281425
INCLINATION    = 82.9314
RA_OF_ASC_NODE = 227.4070
ARG_OF_PERICENTER = 212.8395
MEAN_ANOMALY   = 320.8378

EPHEMERIS_TYPE = 0
CLASSIFICATION_TYPE = U
NORAD_CAT_ID   = 21938
ELEMENT_SET_NO = 999
REV_AT_EPOCH   = 68749
BSTAR          = .48084378E-4
MEAN_MOTION_DOT = .61E-6
MEAN_MOTION_DDOT = 0

CCSDS_OMM_VERS = 2.0
CREATION_DATE  = 
ORIGINATOR     = 

OBJECT_NAME    = USA 81
OBJECT_ID      = 1992-023A
CENTER_NAME    = EARTH
REF_FRAME      = TEME
TIME_SYSTEM    = UTC
MEAN_ELEMENT_THEORY = SGP/SGP4

EPOCH          = 2025-11-30T14:22:31.345824
MEAN_MOTION    = 14.32319945
ECCENTRICITY   = .00019636
INCLINATION    = 85.0089
RA_OF_ASC_NODE = 188.5774
ARG_OF_PERICENTER = 63.7579
MEAN_ANOMALY   = 296.3815

EPHEMERIS_TYPE = 0
CLASSIFICATION_TYPE = U
NORAD_CAT_ID   = 21949
ELEMENT_SET_NO = 999
REV_AT_EPOCH   = 8060
BSTAR          = .65723367E-4
MEAN_MOTION_DOT = .197E-5
MEAN_MOTION_DDOT = 0

CCSDS_OMM_VERS = 2.0
CREATION_DATE  = 
ORIGINATOR     = 

OBJECT_NAME    = COSMOS 2219
OBJECT_ID      = 1992-076A
CENTER_NAME    = EARTH
REF_FRAME      = TEME
TIME_SYSTEM    = UTC
MEAN_ELEMENT_THEORY = SGP/SGP4

EPOCH          = 2025-11-30T09:58:59.952288
MEAN_MOTION    = 14.14064854
ECCENTRICITY   = .00187527
INCLINATION    = 71.0597
RA_OF_ASC_NODE = 225.5934
ARG_OF_PERICENTER = 343.9744
MEAN_ANOMALY   = 16.0783

EPHEMERIS_TYPE = 0
CLASSIFICATION_TYPE = U
NORAD_CAT_ID   = 22219
ELEMENT_SET_NO = 999
REV_AT_EPOCH   = 70434
BSTAR          = -.11393049E-3
MEAN_MOTION_DOT = -.264E-5
MEAN_MOTION_DDOT = 0

CCSDS_OMM_VERS = 2.0
CREATION_DATE  = 
ORIGINATOR     = 

OBJECT_NAME    = SL-16 R/B
OBJECT_ID      = 1992-076B
CENTER_NAME    = EARTH
REF_FRAME      = TEME
TIME_SYSTEM    = UTC
MEAN_ELEMENT_THEORY = SGP/SGP4

EPOCH          = 2025-11-30T13:58:20.646624
MEAN_MOTION    = 14.16840191
ECCENTRICITY   = .00150738
INCLINATION    = 71.0017
RA_OF_ASC_NODE = 37.1416
ARG_OF_PERICENTER = 250.1101
MEAN_ANOMALY   = 213.3934

EPHEMERIS_TYPE = 0
CLASSIFICATION_TYPE = U
NORAD_CAT_ID   = 22220
ELEMENT_SET_NO = 999
REV_AT_EPOCH   = 70779
BSTAR          = .11120852E-3
MEAN_MOTION_DOT = .175E-5
MEAN_MOTION_DDOT = 0

CCSDS_OMM_VERS = 2.0
CREATION_DATE  = 
ORIGINATOR     = 

OBJECT_NAME    = COSMOS 2221
OBJECT_ID      = 1992-080A
CENTER_NAME    = EARTH
REF_FRAME      = TEME
TIME_SYSTEM    = UTC
MEAN_ELEMENT_THEORY = SGP/SGP4

EPOCH          = 2025-11-30T13:48:28.118880
MEAN_MOTION    = 14.95687387
ECCENTRICITY   = .00151668
INCLINATION    = 82.5056
RA_OF_ASC_NODE = 13.9683
ARG_OF_PERICENTER = 159.9912
MEAN_ANOMALY   = 200.1907

EPHEMERIS_TYPE = 0
CLASSIFICATION_TYPE = U
NORAD_CAT_ID   = 22236
ELEMENT_SET_NO = 999
REV_AT_EPOCH   = 76597
BSTAR          = .18063364E-3
MEAN_MOTION_DOT = .2039E-4
MEAN_MOTION_DDOT = 0

CCSDS_OMM_VERS = 2.0
CREATION_DATE  = 
ORIGINATOR     = 

OBJECT_NAME    = SL-16 R/B
OBJECT_ID      = 1992-093B
CENTER_NAME    = EARTH
REF_FRAME      = TEME
TIME_SYSTEM    = UTC
MEAN_ELEMENT_THEORY = SGP/SGP4

EPOCH          = 2025-11-30T09:02:20.616864
MEAN_MOTION    = 14.15426125
ECCENTRICITY   = .0001947
INCLINATION    = 71.0204
RA_OF_ASC_NODE = 212.7476
ARG_OF_PERICENTER = 109.6549
MEAN_ANOMALY   = 250.4784

EPHEMERIS_TYPE = 0
CLASSIFICATION_TYPE = U
NORAD_CAT_ID   = 22285
ELEMENT_SET_NO = 999
REV_AT_EPOCH   = 69910
BSTAR          = -.93144765E-4
MEAN_MOTION_DOT = -.229E-5
MEAN_MOTION_DDOT = 0

